ONEWEB-0545             
1 54647U 22166F   25182.41317767  .00000018  00000+0  12302-4 0  9997
2 54647  87.9268 313.9550 0001706 115.4872 244.6439 13.21825060125161
ONEWEB-0580             
1 54648U 22166G   25182.84052674  .00000027  00000+0  33164-4 0  9997
2 54648  87.9276 313.8668 0001572 106.6985 253.4322 13.21827925125721
ONEWEB-0582             
1 54649U 22166H   25182.12614569  .00000028  00000+0  36240-4 0  9995
2 54649  87.9254 314.0106 0001430 109.1386 250.9903 13.21827874125140
ONEWEB-0583             
1 54650U 22166J   25182.59136289  .00000038  00000+0  60100-4 0  9999
2 54650  87.9271 313.9360 0001852 103.6776 256.4564 13.21827684125212
ONEWEB-0584             
1 54651U 22166K   25182.83895742  .00000057  00000+0  10706-3 0  9990
2 54651  87.9270 313.8711 0001492 103.8565 256.2735 13.21824557125707
ONEWEB-0585             
1 54652U 22166L   25182.86418177 -.00000231  00000+0 -59132-3 0  9999
2 54652  87.9265 313.8530 0001949  97.0926 263.0430 13.21826000125717
ONEWEB-0586             
1 54653U 22166M   25182.42262111 -.00000037  00000+0 -12019-3 0  9994
2 54653  87.9273 313.9627 0001747 103.4873 256.6456 13.21827651125184
ONEWEB-0587             
1 54654U 22166N   25182.28071311 -.00000007  00000+0 -48150-4 0  9992
2 54654  87.9270 313.9398 0002066  94.8849 265.2521 13.21825711125328
